[{"OBJECT_NAME":"STARLINK-3965","OBJECT_ID":"2022-051T","EPOCH":"2026-03-09T09:37:24.126816","MEAN_MOTION":15.08843557,"ECCENTRICITY":0.00013582,"INCLINATION":53.2166,"RA_OF_ASC_NODE":130.4161,"ARG_OF_PERICENTER":87.1674,"MEAN_ANOMALY":272.9474,"EPHEMERIS_TYPE":0,"CLASSIFICATION_TYPE":"U","NORAD_CAT_ID":52550,"ELEMENT_SET_NO":999,"REV_AT_EPOCH":21140,"BSTAR":0.00026322696,"MEAN_MOTION_DOT":3.904e-5,"MEAN_MOTION_DDOT":0},{"OBJECT_NAME":"CZ-4C DEB","OBJECT_ID":"2018-031H","EPOCH":"2026-03-09T10:10:58.582560","MEAN_MOTION":15.14033759,"ECCENTRICITY":0.00199639,"INCLINATION":98.1663,"RA_OF_ASC_NODE":242.9335,"ARG_OF_PERICENTER":272.748,"MEAN_ANOMALY":87.1465,"EPHEMERIS_TYPE":0,"CLASSIFICATION_TYPE":"U","NORAD_CAT_ID":43266,"ELEMENT_SET_NO":999,"REV_AT_EPOCH":43166,"BSTAR":0.00079064643,"MEAN_MOTION_DOT":0.00014379,"MEAN_MOTION_DDOT":0}]
